QIANFAN-17              
1 60395U 24140S   25332.58751241  .00000085  00000+0  11355-3 0  9992
2 60395  88.9757 300.8985 0013044 244.9579 115.0219 13.50974071 66226
QIANFAN-18              
1 60396U 24140T   25332.64099279  .00000087  00000+0  11565-3 0  9991
2 60396  88.9750 300.4274 0012619 224.8456 135.1677 13.50974002 65623
QIANFAN-19              
1 61552U 24185A   25332.64671817  .00000584  00000+0  29887-3 0  9997
2 61552  88.9820  79.5529 0006616   8.0675 352.0617 14.14273667 67679
QIANFAN-20              
1 61553U 24185B   25332.62476616  .00000496  00000+0  27928-3 0  9992
2 61553  88.9818  79.8650 0006957  47.7602 312.4171 14.08819981 67508
QIANFAN-21              
1 61554U 24185C   25332.61247577  .00000755  00000+0  33162-3 0  9999
2 61554  88.9735  78.6310 0012113  57.2117 303.0240 14.22577417 67969
QIANFAN-22              
1 61555U 24185D   25332.64271058  .00000219  00000+0  17820-3 0  9992
2 61555  88.9801  80.7875 0007702  51.9815 308.2050 13.86294768 66989
QIANFAN-23              
1 61556U 24185E   25332.64196890  .00000519  00000+0  25460-3 0  9995
2 61556  88.9812  79.3698 0007804  17.6249 342.5208 14.16270872 67758
QIANFAN-24              
1 61557U 24185F   25332.62706269  .00000706  00000+0  30272-3 0  9996
2 61557  88.9793  78.7996 0008863 357.1942   2.9199 14.23780273 68014
